IRIDIUM 150             
1 43257U 18030J   24009.87861032  .00000382  00000+0  12942-3 0  9996
2 43257  86.3977 302.1314 0001966  74.9668 285.1745 14.34219892302694
IRIDIUM 143             
1 43258U 18030K   24008.74327739  .00000310  00000+0  10358-3 0  9993
2 43258  86.3979 302.6631 0001830  80.4788 279.6615 14.34219927302467
IRIDIUM 161             
1 43478U 18047C   24009.79309935  .00000528  00000+0  15091-3 0  9999
2 43478  86.4491 100.2081 0002209  95.7848 264.3605 14.43294675296857
IRIDIUM 152             
1 43479U 18047D   24009.76252554  .00000398  00000+0  13497-3 0  9994
2 43479  86.3964 100.0799 0001899  99.4791 260.6620 14.34218655295004
IRIDIUM 147             
1 43480U 18047E   24009.76886658  .00000403  00000+0  13698-3 0  9994
2 43480  86.3966 100.0666 0002289  94.5833 265.5624 14.34218018295009
IRIDIUM 110             
1 43481U 18047F   24009.63567258  .00000346  00000+0  11635-3 0  9998
2 43481  86.3968 100.1913 0002470  89.9486 270.1993 14.34219519294975
IRIDIUM 162             
1 43482U 18047G   24009.78684907  .00000525  00000+0  15001-3 0  9996
2 43482  86.4489 100.1128 0002187  93.9860 266.1591 14.43292999296849
IRIDIUM 160             
1 43569U 18061A   24009.58151128 -.00000263  00000+0 -10088-3 0  9991
2 43569  86.3946  68.5643 0002234 107.5210 252.6230 14.34216388285863
